{"type":"FeatureCollection","features":[{"type":"Feature","properties":{"id":"borochov","name":"בורוכוב","name_en":"Borochov","city":"גבעתיים","kind":"neighborhood","osm":"way/893334101"},"geometry":{"type":"Polygon","coordinates":[[[34.80141,32.07892],[34.80123,32.07822],[34.80193,32.07771],[34.80212,32.07662],[34.80455,32.0766],[34.8058,32.07692],[34.80548,32.07519],[34.81229,32.07585],[34.81398,32.07715],[34.81441,32.07723],[34.81513,32.07868],[34.81318,32.07803],[34.81255,32.07988],[34.81205,32.07994],[34.81186,32.07955],[34.81135,32.07947],[34.80851,32.07996],[34.80497,32.07974],[34.80504,32.07922],[34.80141,32.07892]]]}},{"type":"Feature","properties":{"id":"givatayim_city","name":"סיטי","name_en":"Citi","city":"גבעתיים","kind":"neighborhood","osm":"way/893349040"},"geometry":{"type":"Polygon","coordinates":[[[34.80169,32.08115],[34.80137,32.08115],[34.80135,32.08158],[34.80084,32.08188],[34.80024,32.08123],[34.79812,32.0808],[34.79786,32.08021],[34.79889,32.07941],[34.80123,32.07822],[34.80169,32.08115]]]}},{"type":"Feature","properties":{"id":"aliot","name":"עליות","name_en":"Aliot","city":"רמת גן","kind":"neighborhood","osm":"way/797692544"},"geometry":{"type":"Polygon","coordinates":[[[34.82767,32.07544],[34.82808,32.07549],[34.82816,32.07449],[34.825,32.07462],[34.82559,32.081],[34.82533,32.08258],[34.82573,32.08268],[34.82613,32.08147],[34.82746,32.07707],[34.82767,32.07544]]]}},{"type":"Feature","properties":{"id":"azor_habiluim","name":"אזור הבילויים","name_en":"Azor HaBiluim","city":"רמת גן","kind":"neighborhood","osm":"way/799138648"},"geometry":{"type":"Polygon","coordinates":[[[34.81853,32.05912],[34.8222,32.05983],[34.82489,32.05965],[34.82803,32.05872],[34.82848,32.06347],[34.82046,32.06443],[34.81991,32.06283],[34.81938,32.06209],[34.81961,32.0617],[34.81921,32.06147],[34.81898,32.06042],[34.8188,32.06037],[34.81894,32.05997],[34.81862,32.05976],[34.81879,32.05932],[34.81853,32.05912]]]}},{"type":"Feature","properties":{"id":"bar_ilan","name":"בר אילן","name_en":"Bar Ilan","city":"רמת גן","kind":"neighborhood","osm":"way/799175794"},"geometry":{"type":"Polygon","coordinates":[[[34.84687,32.07503],[34.8512,32.07322],[34.85029,32.06934],[34.84806,32.0695],[34.84819,32.06976],[34.84711,32.07015],[34.84746,32.07087],[34.84552,32.07127],[34.84521,32.06561],[34.84235,32.065],[34.83953,32.06491],[34.83889,32.06446],[34.83625,32.06441],[34.83917,32.06641],[34.84188,32.07018],[34.84326,32.07283],[34.84432,32.07251],[34.84545,32.07428],[34.84634,32.07413],[34.84687,32.07503]]]}},{"type":"Feature","properties":{"id":"bursa","name":"הבורסה","name_en":"Bursa","city":"רמת גן","kind":"neighborhood","osm":"way/720020257"},"geometry":{"type":"Polygon","coordinates":[[[34.80116,32.08957],[34.80318,32.08853],[34.80403,32.08838],[34.80394,32.08789],[34.80551,32.08715],[34.80562,32.08696],[34.80449,32.08553],[34.80486,32.08521],[34.80561,32.08336],[34.80394,32.08293],[34.80139,32.08285],[34.79981,32.0823],[34.79943,32.08321],[34.79953,32.08393],[34.79917,32.08431],[34.8006,32.08975],[34.80116,32.08957]]]}},{"type":"Feature","properties":{"id":"harishonim","name":"הראשונים","name_en":"HaRishonim","city":"רמת גן","kind":"neighborhood","osm":"way/797594603"},"geometry":{"type":"Polygon","coordinates":[[[34.80497,32.07974],[34.80504,32.07922],[34.80141,32.07892],[34.80139,32.08014],[34.80156,32.08015],[34.80169,32.08115],[34.80137,32.08115],[34.80135,32.08158],[34.80084,32.08188],[34.80002,32.08119],[34.79981,32.0823],[34.80139,32.08285],[34.80438,32.08302],[34.80788,32.08397],[34.80842,32.08228],[34.80762,32.0803],[34.80789,32.07995],[34.80497,32.07974]]]}},{"type":"Feature","properties":{"id":"haruzim","name":"חרוזים","name_en":"Haruzim","city":"רמת גן","kind":"neighborhood","osm":"way/721022542"},"geometry":{"type":"Polygon","coordinates":[[[34.80562,32.08696],[34.80643,32.08774],[34.80986,32.08982],[34.80943,32.09105],[34.80693,32.0898],[34.80693,32.09116],[34.80601,32.09115],[34.80581,32.0914],[34.8044,32.09089],[34.80362,32.09147],[34.80227,32.09363],[34.80188,32.09316],[34.80158,32.09178],[34.80064,32.08974],[34.80318,32.08853],[34.80403,32.08838],[34.80394,32.08789],[34.80562,32.08696]]]}},{"type":"Feature","properties":{"id":"hashmonaim","name":"חשמונאים","name_en":"Hashmonaim","city":"רמת גן","kind":"neighborhood","osm":"way/797649547"},"geometry":{"type":"Polygon","coordinates":[[[34.81073,32.0857],[34.81334,32.08444],[34.8144,32.08347],[34.81488,32.08214],[34.81513,32.07868],[34.81318,32.07803],[34.81255,32.07988],[34.81205,32.07994],[34.81186,32.07955],[34.81135,32.07947],[34.80789,32.07995],[34.80762,32.0803],[34.80842,32.08228],[34.80788,32.08397],[34.80978,32.08483],[34.81073,32.0857]]]}},{"type":"Feature","properties":{"id":"kfar_azar","name":"כפר אז\"ר","name_en":"Kfar Azar","city":"רמת גן","kind":"neighborhood","osm":"way/84088480"},"geometry":{"type":"Polygon","coordinates":[[[34.83729,32.053],[34.83807,32.05211],[34.84172,32.05074],[34.84372,32.05453],[34.84568,32.06148],[34.84144,32.06235],[34.84083,32.06022],[34.83663,32.06106],[34.83551,32.05827],[34.83522,32.0556],[34.83729,32.053]]]}},{"type":"Feature","properties":{"id":"nahalat_ganim","name":"נחלת גנים","name_en":"Nahalat Ganim","city":"רמת גן","kind":"neighborhood","osm":"way/718136881"},"geometry":{"type":"Polygon","coordinates":[[[34.81574,32.09246],[34.81962,32.09506],[34.82148,32.09672],[34.82274,32.09073],[34.82003,32.09015],[34.81729,32.0892],[34.81574,32.09246]]]}},{"type":"Feature","properties":{"id":"neve_yehoshua","name":"נווה יהושע","name_en":"Neve Yehoshua","city":"רמת גן","kind":"neighborhood","osm":"way/799138649"},"geometry":{"type":"Polygon","coordinates":[[[34.82803,32.05872],[34.83416,32.05703],[34.83663,32.06106],[34.83711,32.06223],[34.83889,32.06446],[34.83287,32.06419],[34.83185,32.06351],[34.82848,32.06347],[34.82803,32.05872]]]}},{"type":"Feature","properties":{"id":"qiryat_krinitzi","name":"קרית קריניצי","name_en":"Qiryat Krinitzi","city":"רמת גן","kind":"neighborhood","osm":"way/84620760"},"geometry":{"type":"Polygon","coordinates":[[[34.84215,32.05158],[34.84158,32.05049],[34.84247,32.05041],[34.84604,32.05116],[34.84852,32.05257],[34.84967,32.05039],[34.85031,32.04999],[34.85213,32.05146],[34.85349,32.05198],[34.85175,32.05529],[34.84669,32.06203],[34.84568,32.06148],[34.84372,32.05453],[34.84215,32.05158]]]}},{"type":"Feature","properties":{"id":"ramat_amidar","name":"רמת עמידר","name_en":"Ramat Amidar","city":"רמת גן","kind":"neighborhood","osm":"way/797692548"},"geometry":{"type":"Polygon","coordinates":[[[34.83287,32.06419],[34.83625,32.06441],[34.83917,32.06641],[34.84103,32.06901],[34.83912,32.06955],[34.83942,32.06999],[34.83288,32.07192],[34.8325,32.06992],[34.83297,32.06614],[34.83287,32.06419]]]}},{"type":"Feature","properties":{"id":"ramat_efal","name":"רמת אפעל","name_en":"Ramat Efal","city":"רמת גן","kind":"neighborhood","osm":"way/82246723"},"geometry":{"type":"Polygon","coordinates":[[[34.83133,32.04321],[34.83013,32.04505],[34.83052,32.04711],[34.83357,32.05292],[34.83603,32.05337],[34.83784,32.05168],[34.8374,32.05076],[34.83837,32.05034],[34.83814,32.04967],[34.83865,32.04948],[34.83878,32.049],[34.83858,32.04794],[34.83925,32.04761],[34.8387,32.04661],[34.83954,32.04627],[34.8375,32.04149],[34.83433,32.04246],[34.83128,32.04265],[34.83133,32.04321]]]}},{"type":"Feature","properties":{"id":"ramat_hen","name":"רמת חן","name_en":"Ramat Hen","city":"רמת גן","kind":"neighborhood","osm":"way/799173479"},"geometry":{"type":"Polygon","coordinates":[[[34.81692,32.05416],[34.8164,32.05274],[34.81242,32.05427],[34.81178,32.05377],[34.81043,32.05486],[34.81128,32.05657],[34.8118,32.05863],[34.81557,32.0585],[34.8222,32.05983],[34.82489,32.05965],[34.82803,32.05872],[34.82685,32.05606],[34.82618,32.05534],[34.8251,32.05436],[34.8215,32.05229],[34.82067,32.05271],[34.81702,32.05257],[34.81743,32.05401],[34.81692,32.05416]]]}},{"type":"Feature","properties":{"id":"ramat_shikma","name":"רמת שקמה","name_en":"Ramat Shikma","city":"רמת גן","kind":"neighborhood","osm":"way/799173480"},"geometry":{"type":"Polygon","coordinates":[[[34.8215,32.05229],[34.82067,32.05271],[34.81702,32.05257],[34.81743,32.05401],[34.81692,32.05416],[34.8164,32.05274],[34.81242,32.05427],[34.81178,32.05377],[34.813,32.05235],[34.81384,32.05067],[34.81381,32.047],[34.81529,32.04694],[34.81651,32.04746],[34.8198,32.04826],[34.82168,32.04928],[34.82252,32.05026],[34.82272,32.05137],[34.8215,32.05229]]]}},{"type":"Feature","properties":{"id":"ramat_yitzhak","name":"רמת יצחק","name_en":"Ramat Yitzhak","city":"רמת גן","kind":"neighborhood","osm":"way/542561800"},"geometry":{"type":"Polygon","coordinates":[[[34.81807,32.07135],[34.82037,32.07107],[34.82259,32.07061],[34.82252,32.07047],[34.82754,32.0702],[34.82763,32.07705],[34.82711,32.07824],[34.82536,32.07829],[34.82537,32.07916],[34.81968,32.07936],[34.81957,32.07894],[34.82068,32.07891],[34.82069,32.07825],[34.81936,32.0783],[34.81827,32.07344],[34.81838,32.07276],[34.81807,32.07135]]]}},{"type":"Feature","properties":{"id":"shikun_vatikim","name":"ותיקים","name_en":"Shikun Vatikim","city":"רמת גן","kind":"neighborhood","osm":"way/719993863"},"geometry":{"type":"Polygon","coordinates":[[[34.81261,32.09516],[34.81592,32.09652],[34.81693,32.09667],[34.81782,32.09638],[34.81942,32.09492],[34.81392,32.09139],[34.81102,32.09055],[34.80986,32.08982],[34.8088,32.09357],[34.80882,32.09419],[34.80974,32.09502],[34.81261,32.09516]]]}},{"type":"Feature","properties":{"id":"tel_ganim","name":"תל גנים","name_en":"Tel Ganim","city":"רמת גן","kind":"neighborhood","osm":"way/797556319"},"geometry":{"type":"Polygon","coordinates":[[[34.8213,32.06687],[34.81675,32.06804],[34.81629,32.06673],[34.81498,32.06487],[34.81776,32.06388],[34.81969,32.06246],[34.8213,32.06687]]]}},{"type":"Feature","properties":{"id":"tsanhanim","name":"צנחנים","name_en":"Tsanhanim","city":"רמת גן","kind":"neighborhood","osm":"way/799138650"},"geometry":{"type":"Polygon","coordinates":[[[34.82803,32.05872],[34.82685,32.05606],[34.8251,32.05436],[34.82354,32.05347],[34.82458,32.05295],[34.83185,32.05172],[34.83416,32.05703],[34.82803,32.05872]]]}},{"type":"Feature","properties":{"id":"yahalom","name":"יהלום","name_en":"Yahalom","city":"רמת גן","kind":"neighborhood","osm":"way/734786966"},"geometry":{"type":"Polygon","coordinates":[[[34.8144,32.08347],[34.81483,32.08213],[34.8149,32.07939],[34.81513,32.07868],[34.81997,32.08049],[34.82148,32.08376],[34.8196,32.08406],[34.81581,32.08382],[34.8144,32.08347]]]}},{"type":"Feature","properties":{"id":"ajami_and_givat_aliyah","name":"עג'מי וגבעת עליה","name_en":"Ajami and Givat Aliyah","city":"תל אביב יפו","kind":"neighborhood","osm":"way/816911092"},"geometry":{"type":"Polygon","coordinates":[[[34.75241,32.04796],[34.75256,32.04567],[34.75193,32.04411],[34.75196,32.04259],[34.75107,32.03971],[34.74998,32.03744],[34.74741,32.03492],[34.74396,32.03278],[34.74244,32.03318],[34.74415,32.03597],[34.74416,32.03698],[34.7449,32.03756],[34.74513,32.03805],[34.74517,32.03862],[34.74489,32.03925],[34.74457,32.03911],[34.74457,32.03945],[34.74517,32.04061],[34.74496,32.04092],[34.74424,32.04061],[34.74394,32.04089],[34.74403,32.04165],[34.7448,32.0423],[34.74497,32.04322],[34.74537,32.04345],[34.74548,32.04386],[34.74542,32.04422],[34.74488,32.04475],[34.74414,32.0449],[34.74504,32.04631],[34.74497,32.04713],[34.74551,32.048],[34.74691,32.04843],[34.74772,32.04786],[34.75032,32.05212],[34.75088,32.05189],[34.75068,32.05086],[34.75091,32.05047],[34.75281,32.05011],[34.75241,32.04796]]]}},{"type":"Feature","properties":{"id":"bavli","name":"בבלי","name_en":"Bavli","city":"תל אביב יפו","kind":"neighborhood","osm":"way/803479640"},"geometry":{"type":"Polygon","coordinates":[[[34.8029,32.10007],[34.80322,32.10007],[34.80304,32.09888],[34.80407,32.09765],[34.8041,32.09707],[34.80197,32.09343],[34.80121,32.08967],[34.79736,32.09108],[34.79525,32.09127],[34.79367,32.09797],[34.79663,32.09882],[34.79977,32.10035],[34.8029,32.10007]]]}},{"type":"Feature","properties":{"id":"bitzaron_ramat_israel","name":"ביצרון ורמת ישראל","name_en":"Bitzaron & Ramat Israel","city":"תל אביב יפו","kind":"neighborhood","osm":"way/819219040"},"geometry":{"type":"Polygon","coordinates":[[[34.80278,32.06605],[34.79881,32.06596],[34.79908,32.06425],[34.79734,32.06399],[34.79445,32.06394],[34.79033,32.06463],[34.79165,32.06597],[34.79246,32.06726],[34.79401,32.07263],[34.80214,32.06997],[34.80246,32.06931],[34.80278,32.06605]]]}},{"type":"Feature","properties":{"id":"ezra_haargazim","name":"עזרא והארגזים","name_en":"Ezra Veha'argazim","city":"תל אביב יפו","kind":"neighborhood","osm":"way/819219051"},"geometry":{"type":"Polygon","coordinates":[[[34.79916,32.04428],[34.79808,32.04449],[34.79741,32.0427],[34.79597,32.04254],[34.79564,32.04343],[34.79183,32.04366],[34.79126,32.04326],[34.79164,32.04259],[34.79144,32.04178],[34.79055,32.0416],[34.78951,32.04379],[34.78986,32.04465],[34.78947,32.04497],[34.7885,32.04482],[34.78818,32.04667],[34.78798,32.04643],[34.78751,32.04699],[34.78909,32.04743],[34.79185,32.0474],[34.7941,32.04765],[34.79837,32.04706],[34.79916,32.04428]]]}},{"type":"Feature","properties":{"id":"florentin","name":"פלורנטין","name_en":"Florentin","city":"תל אביב יפו","kind":"neighborhood","osm":"way/817274798"},"geometry":{"type":"Polygon","coordinates":[[[34.77257,32.05579],[34.77216,32.0548],[34.76763,32.05497],[34.76507,32.05476],[34.76472,32.05653],[34.764,32.05792],[34.76684,32.05939],[34.76963,32.06032],[34.77134,32.06067],[34.77392,32.06061],[34.77257,32.05579]]]}},{"type":"Feature","properties":{"id":"givat_herzl","name":"גבעת הרצל","name_en":"Givat Herzl","city":"תל אביב יפו","kind":"neighborhood","osm":"way/817274800"},"geometry":{"type":"Polygon","coordinates":[[[34.77075,32.05474],[34.77539,32.05487],[34.77341,32.04951],[34.77013,32.05135],[34.76928,32.04948],[34.76862,32.04619],[34.76795,32.0453],[34.76528,32.04787],[34.76366,32.04873],[34.76538,32.05196],[34.76512,32.05474],[34.76763,32.05497],[34.77075,32.05474]]]}},{"type":"Feature","properties":{"id":"grove_park","name":"פארק החורשות","name_en":"Grove Park","city":"תל אביב יפו","kind":"neighborhood","osm":"way/819219091"},"geometry":{"type":"Polygon","coordinates":[[[34.77341,32.04951],[34.77169,32.04404],[34.77168,32.04251],[34.76935,32.04394],[34.76795,32.0453],[34.76862,32.04619],[34.76928,32.04948],[34.77013,32.05135],[34.77341,32.04951]]]}},{"type":"Feature","properties":{"id":"hatikva","name":"התקוה","name_en":"HaTikva","city":"תל אביב יפו","kind":"neighborhood","osm":"way/819219044"},"geometry":{"type":"Polygon","coordinates":[[[34.78588,32.05407],[34.78893,32.05418],[34.8001,32.05334],[34.79902,32.04695],[34.79415,32.04765],[34.78909,32.04743],[34.78751,32.04699],[34.78543,32.05016],[34.78531,32.05424],[34.78588,32.05407]]]}},{"type":"Feature","properties":{"id":"jaffa_college_dakar","name":"מכללת יפו תל אביב ודקר","name_en":"Jaffa College Tel Aviv and Dakar","city":"תל אביב יפו","kind":"neighborhood","osm":"way/819835129"},"geometry":{"type":"Polygon","coordinates":[[[34.75992,32.0498],[34.76034,32.04996],[34.76366,32.04873],[34.7631,32.04768],[34.76183,32.03986],[34.7608,32.03779],[34.76074,32.0364],[34.76006,32.03627],[34.75935,32.03643],[34.75861,32.03701],[34.75544,32.038],[34.75814,32.04532],[34.75896,32.05101],[34.75995,32.05018],[34.75992,32.0498]]]}},{"type":"Feature","properties":{"id":"kerem_hateimanim","name":"כרם התימנים","name_en":"Kerem HaTeimanim","city":"תל אביב יפו","kind":"neighborhood","osm":"way/803468679"},"geometry":{"type":"Polygon","coordinates":[[[34.77014,32.07049],[34.77048,32.06987],[34.76641,32.06659],[34.76192,32.06871],[34.76278,32.06954],[34.763,32.07091],[34.7635,32.07199],[34.76346,32.073],[34.76412,32.07399],[34.76874,32.07269],[34.77014,32.07049]]]}},{"type":"Feature","properties":{"id":"kiryat_shalom","name":"קרית שלום","name_en":"Kiryat Shalom","city":"תל אביב יפו","kind":"neighborhood","osm":"way/819219054"},"geometry":{"type":"Polygon","coordinates":[[[34.78379,32.04695],[34.78647,32.04699],[34.78655,32.04682],[34.78593,32.04671],[34.77882,32.03824],[34.77168,32.04251],[34.77169,32.04404],[34.77341,32.04951],[34.77907,32.04763],[34.78379,32.04695]]]}},{"type":"Feature","properties":{"id":"kochav_hatsafon","name":"כוכב הצפון","name_en":"Kochav HaTsafon","city":"תל אביב יפו","kind":"neighborhood","osm":"way/819855107"},"geometry":{"type":"Polygon","coordinates":[[[34.78352,32.09864],[34.78331,32.09864],[34.78193,32.10103],[34.78164,32.10193],[34.79266,32.10337],[34.79342,32.09984],[34.78909,32.09896],[34.78352,32.09864]]]}},{"type":"Feature","properties":{"id":"lamed","name":"שכונת למד","name_en":"Lamed","city":"תל אביב יפו","kind":"neighborhood","osm":"way/819843803"},"geometry":{"type":"Polygon","coordinates":[[[34.79247,32.11245],[34.79192,32.10794],[34.79266,32.10337],[34.78164,32.10193],[34.78143,32.10289],[34.7824,32.10467],[34.78439,32.11188],[34.79252,32.1126],[34.79247,32.11245]]]}},{"type":"Feature","properties":{"id":"lev_tel_aviv","name":"לב תל-אביב","name_en":"Lev Tel Aviv","city":"תל אביב יפו","kind":"neighborhood","osm":"relation/17399098"},"geometry":{"type":"Polygon","coordinates":[[[34.77048,32.06987],[34.76874,32.07269],[34.76412,32.07399],[34.76429,32.07491],[34.76501,32.07557],[34.76538,32.07638],[34.76516,32.07721],[34.76461,32.07752],[34.76505,32.07745],[34.76553,32.07784],[34.76619,32.07959],[34.76728,32.07868],[34.76755,32.07807],[34.77772,32.07267],[34.77922,32.07221],[34.77931,32.0718],[34.78196,32.07108],[34.78115,32.06988],[34.78281,32.06957],[34.7837,32.06598],[34.78213,32.06467],[34.77832,32.06267],[34.77726,32.06102],[34.77671,32.06069],[34.77048,32.06054],[34.77028,32.0615],[34.76886,32.06134],[34.76859,32.06344],[34.76907,32.06351],[34.76883,32.06486],[34.7664,32.06659],[34.77048,32.06987]]]}},{"type":"Feature","properties":{"id":"livna_yedidya","name":"לבנה, ידידיה","name_en":"Livna, Yedidya","city":"תל אביב יפו","kind":"neighborhood","osm":"way/819219050"},"geometry":{"type":"Polygon","coordinates":[[[34.80976,32.04152],[34.81067,32.04375],[34.80475,32.04349],[34.80427,32.04367],[34.80255,32.04362],[34.79917,32.04426],[34.79837,32.04706],[34.80756,32.04534],[34.81384,32.0446],[34.8124,32.04084],[34.80976,32.04152]]]}},{"type":"Feature","properties":{"id":"merkaz_hayeridim","name":"מרכז הירידים","name_en":"Merkaz Hayeridim","city":"תל אביב יפו","kind":"neighborhood","osm":"way/819854184"},"geometry":{"type":"Polygon","coordinates":[[[34.81399,32.10682],[34.81169,32.10511],[34.80862,32.10347],[34.80374,32.10208],[34.80402,32.10214],[34.80848,32.10882],[34.81076,32.11268],[34.8112,32.11088],[34.81202,32.10918],[34.81399,32.10682]]]}},{"type":"Feature","properties":{"id":"montefiore","name":"מונטיפיורי","name_en":"Montefiore","city":"תל אביב יפו","kind":"neighborhood","osm":"relation/17399097"},"geometry":{"type":"Polygon","coordinates":[[[34.78181,32.06451],[34.78771,32.06928],[34.78905,32.07078],[34.79005,32.07226],[34.79116,32.0751],[34.79315,32.07854],[34.797,32.08092],[34.79786,32.08021],[34.79739,32.07934],[34.79499,32.07692],[34.79411,32.07562],[34.79389,32.07504],[34.79398,32.07246],[34.79295,32.06849],[34.79221,32.06679],[34.79098,32.06522],[34.78784,32.06237],[34.78714,32.06118],[34.78654,32.05933],[34.78382,32.05921],[34.77923,32.06315],[34.78181,32.06451]]]}},{"type":"Feature","properties":{"id":"nahalat_yitzhak","name":"נחלת יצחק","name_en":null,"city":"תל אביב יפו","kind":"neighborhood","osm":"way/819219038"},"geometry":{"type":"Polygon","coordinates":[[[34.80237,32.07016],[34.80217,32.06994],[34.79401,32.07263],[34.79389,32.07504],[34.79411,32.07562],[34.79499,32.07692],[34.79794,32.08009],[34.80201,32.0775],[34.80212,32.07652],[34.8007,32.07292],[34.80259,32.07043],[34.80237,32.07016]]]}},{"type":"Feature","properties":{"id":"neve_barbur_kfar_shalem_west","name":"נוה ברבור, כפר שלם מערב","name_en":"Neve Varbour, Kfar Shalem West","city":"תל אביב יפו","kind":"neighborhood","osm":"way/819219045"},"geometry":{"type":"Polygon","coordinates":[[[34.80512,32.05339],[34.80489,32.05322],[34.80536,32.05256],[34.80498,32.05226],[34.80538,32.0504],[34.80516,32.04963],[34.80539,32.04945],[34.80539,32.04891],[34.80404,32.04886],[34.80334,32.04941],[34.79958,32.05],[34.8001,32.05334],[34.80247,32.05356],[34.80383,32.05409],[34.8046,32.05481],[34.80475,32.05375],[34.80512,32.05339]]]}},{"type":"Feature","properties":{"id":"neve_eliezer_kfar_shalem_east","name":"נוה אליעזר וכפר שלם מזרח","name_en":"Neve Eliezer & Kfar Shalem East","city":"תל אביב יפו","kind":"neighborhood","osm":"way/819219046"},"geometry":{"type":"Polygon","coordinates":[[[34.80548,32.05487],[34.8075,32.05382],[34.80777,32.05324],[34.80894,32.05226],[34.80907,32.05109],[34.80958,32.05066],[34.81009,32.04922],[34.80995,32.04646],[34.80951,32.04509],[34.80629,32.04557],[34.80732,32.04895],[34.80677,32.0491],[34.80539,32.04891],[34.80539,32.04945],[34.80516,32.04963],[34.80538,32.0504],[34.80498,32.05226],[34.80536,32.05256],[34.80494,32.05296],[34.80512,32.0534],[34.80475,32.05375],[34.8046,32.05481],[34.80501,32.0548],[34.80512,32.05513],[34.80548,32.05487]]]}},{"type":"Feature","properties":{"id":"neve_hen","name":"נוה חן","name_en":"Neve Hen","city":"תל אביב יפו","kind":"neighborhood","osm":"way/819219047"},"geometry":{"type":"Polygon","coordinates":[[[34.80886,32.05575],[34.81045,32.05486],[34.81254,32.05299],[34.81381,32.05088],[34.81391,32.04966],[34.81009,32.04922],[34.80958,32.05066],[34.80907,32.05109],[34.80881,32.05242],[34.80777,32.05324],[34.8075,32.05382],[34.80571,32.05463],[34.80512,32.05513],[34.80555,32.05564],[34.80577,32.05552],[34.80649,32.0566],[34.80886,32.05575]]]}},{"type":"Feature","properties":{"id":"neve_kfir","name":"כפיר","name_en":"Neve Kfir","city":"תל אביב יפו","kind":"neighborhood","osm":"way/819219049"},"geometry":{"type":"Polygon","coordinates":[[[34.80307,32.04941],[34.80437,32.04881],[34.8073,32.04904],[34.80712,32.04778],[34.80629,32.04557],[34.79902,32.04695],[34.79958,32.05],[34.80307,32.04941]]]}},{"type":"Feature","properties":{"id":"neve_ofer","name":"נווה עופר","name_en":"Neve Ofer","city":"תל אביב יפו","kind":"neighborhood","osm":"way/819219092"},"geometry":{"type":"Polygon","coordinates":[[[34.76913,32.03689],[34.76926,32.03548],[34.76974,32.0346],[34.76452,32.03649],[34.76074,32.0364],[34.7608,32.03779],[34.76134,32.03854],[34.76197,32.04035],[34.7631,32.04768],[34.76366,32.04873],[34.76528,32.04787],[34.76897,32.04427],[34.77079,32.04305],[34.76983,32.04111],[34.76913,32.03689]]]}},{"type":"Feature","properties":{"id":"neve_shaanan","name":"נווה שאנן","name_en":"Neve Shaanan","city":"תל אביב יפו","kind":"neighborhood","osm":"way/817274799"},"geometry":{"type":"Polygon","coordinates":[[[34.78221,32.06059],[34.78382,32.05921],[34.78654,32.05933],[34.78559,32.05622],[34.78531,32.05434],[34.78254,32.05552],[34.78208,32.05398],[34.78175,32.05373],[34.77499,32.05494],[34.77216,32.0548],[34.77281,32.05628],[34.77392,32.06061],[34.77597,32.06056],[34.77697,32.0608],[34.77814,32.06251],[34.77923,32.06315],[34.78221,32.06059]]]}},{"type":"Feature","properties":{"id":"neve_tzedek","name":"נוה צדק","name_en":"Neve Tzedek","city":"תל אביב יפו","kind":"neighborhood","osm":"way/803468682"},"geometry":{"type":"Polygon","coordinates":[[[34.76144,32.06855],[34.76192,32.06871],[34.76558,32.06707],[34.76863,32.06507],[34.76907,32.06351],[34.76859,32.06344],[34.76886,32.06134],[34.77028,32.0615],[34.77049,32.06054],[34.76743,32.05964],[34.76467,32.0582],[34.76176,32.05719],[34.75988,32.05688],[34.75992,32.05729],[34.75857,32.05762],[34.75777,32.05744],[34.75689,32.05781],[34.75828,32.05947],[34.75992,32.06215],[34.75957,32.06308],[34.76009,32.06429],[34.76047,32.06465],[34.76141,32.06824],[34.76078,32.06955],[34.76144,32.06855]]]}},{"type":"Feature","properties":{"id":"new_north_kikar_hamedina","name":"הצפון החדש - סביבת ככר המדינה","name_en":"The New North - Kikar HaMedina","city":"תל אביב יפו","kind":"neighborhood","osm":"relation/12121552"},"geometry":{"type":"Polygon","coordinates":[[[34.7953,32.091],[34.79554,32.08768],[34.79459,32.08263],[34.78176,32.08528],[34.78288,32.09097],[34.79525,32.09127],[34.7953,32.091]]]}},{"type":"Feature","properties":{"id":"new_north_north","name":"הצפון החדש - החלק הצפוני","name_en":"The New North - Northern part","city":"תל אביב יפו","kind":"neighborhood","osm":"relation/12121551"},"geometry":{"type":"Polygon","coordinates":[[[34.79347,32.09794],[34.79367,32.09797],[34.79525,32.09127],[34.78288,32.09097],[34.78373,32.09542],[34.7837,32.09671],[34.78671,32.09673],[34.79347,32.09794]]]}},{"type":"Feature","properties":{"id":"new_north_south","name":"הצפון החדש - החלק הדרומי","name_en":"The New North - South part","city":"תל אביב יפו","kind":"neighborhood","osm":"relation/12121553"},"geometry":{"type":"Polygon","coordinates":[[[34.79315,32.07854],[34.78542,32.07583],[34.78165,32.07553],[34.7813,32.07746],[34.78127,32.08138],[34.78134,32.08319],[34.78176,32.08528],[34.79459,32.08263],[34.79401,32.08009],[34.79315,32.07854]]]}},{"type":"Feature","properties":{"id":"nir_aviv","name":"ניר אביב","name_en":"Nir Aviv","city":"תל אביב יפו","kind":"neighborhood","osm":"way/819219048"},"geometry":{"type":"Polygon","coordinates":[[[34.81391,32.04966],[34.81385,32.04704],[34.81329,32.04455],[34.80951,32.04509],[34.80995,32.04646],[34.81009,32.04922],[34.81391,32.04966]]]}},{"type":"Feature","properties":{"id":"northern_jaffa","name":"צפון יפו","name_en":"Northern Jaffa","city":"תל אביב יפו","kind":"neighborhood","osm":"way/819836744"},"geometry":{"type":"Polygon","coordinates":[[[34.76441,32.05716],[34.76513,32.05476],[34.76543,32.05242],[34.76522,32.0515],[34.76366,32.04873],[34.76034,32.04996],[34.75992,32.0498],[34.75995,32.05018],[34.75896,32.05101],[34.75876,32.04963],[34.75281,32.05011],[34.75303,32.0522],[34.75388,32.05318],[34.75487,32.05365],[34.75626,32.05484],[34.7565,32.05545],[34.75607,32.05569],[34.75521,32.05565],[34.75551,32.05606],[34.75531,32.05621],[34.75689,32.05781],[34.75777,32.05744],[34.75857,32.05762],[34.75992,32.05729],[34.75988,32.05688],[34.7623,32.05732],[34.764,32.05792],[34.76441,32.05716]]]}},{"type":"Feature","properties":{"id":"old_jaffa","name":"יפו העתיקה,נמל יפו","name_en":"Old Jaffa, Jaffa Port","city":"תל אביב יפו","kind":"neighborhood","osm":"way/819836745"},"geometry":{"type":"Polygon","coordinates":[[[34.75521,32.0563],[34.75551,32.05606],[34.75521,32.05565],[34.75607,32.05569],[34.7565,32.05545],[34.75614,32.05464],[34.75388,32.05318],[34.75303,32.0522],[34.75281,32.05011],[34.75091,32.05047],[34.75068,32.05086],[34.75088,32.05189],[34.75032,32.05212],[34.74773,32.04787],[34.74699,32.04823],[34.74829,32.05056],[34.74829,32.0514],[34.74807,32.0516],[34.74819,32.05237],[34.75,32.0557],[34.75018,32.05562],[34.74979,32.05469],[34.74841,32.05228],[34.7484,32.05131],[34.74852,32.05165],[34.7494,32.05161],[34.74959,32.05183],[34.7497,32.05335],[34.75113,32.05506],[34.75318,32.05577],[34.75442,32.05568],[34.75521,32.0563]]]}},{"type":"Feature","properties":{"id":"old_north_north","name":"הצפון הישן - החלק הצפוני","name_en":"The Old North - Northern part","city":"תל אביב יפו","kind":"neighborhood","osm":"way/803404213"},"geometry":{"type":"Polygon","coordinates":[[[34.77837,32.09651],[34.77909,32.09617],[34.77909,32.09646],[34.77913,32.09612],[34.7837,32.09671],[34.7835,32.09409],[34.78135,32.08326],[34.78128,32.08124],[34.78003,32.08123],[34.78001,32.08149],[34.77937,32.08161],[34.77522,32.08396],[34.77029,32.08537],[34.7695,32.08428],[34.76883,32.08271],[34.76732,32.08301],[34.76715,32.08344],[34.76663,32.08377],[34.76769,32.08404],[34.76811,32.08469],[34.7665,32.0854],[34.76621,32.08589],[34.76621,32.08662],[34.76651,32.08791],[34.76671,32.08798],[34.76639,32.0864],[34.76649,32.08579],[34.7675,32.08509],[34.76785,32.08549],[34.76824,32.08711],[34.7671,32.08737],[34.76896,32.08714],[34.7693,32.08761],[34.76964,32.08892],[34.76931,32.09001],[34.76904,32.09027],[34.76805,32.09044],[34.76759,32.08966],[34.76839,32.09156],[34.76853,32.0915],[34.7681,32.0905],[34.77001,32.09093],[34.77069,32.09183],[34.77066,32.09249],[34.76944,32.09377],[34.76906,32.09276],[34.76885,32.09283],[34.7698,32.0953],[34.77001,32.09524],[34.7695,32.09421],[34.76987,32.09414],[34.77128,32.09426],[34.77192,32.09468],[34.77201,32.09505],[34.7728,32.09485],[34.77314,32.09588],[34.77336,32.09583],[34.77369,32.09632],[34.77401,32.0976],[34.77444,32.09752],[34.77432,32.09709],[34.77488,32.09693],[34.7775,32.09784],[34.77837,32.09651]]]}},{"type":"Feature","properties":{"id":"old_north_south","name":"הצפון הישן - החלק הדרומי","name_en":"The Old North - Southern part","city":"תל אביב יפו","kind":"neighborhood","osm":"way/803468680"},"geometry":{"type":"Polygon","coordinates":[[[34.77431,32.08429],[34.77953,32.08153],[34.78001,32.08149],[34.78003,32.08123],[34.78128,32.08124],[34.7813,32.07746],[34.78166,32.07544],[34.78196,32.07108],[34.77931,32.0718],[34.77922,32.07221],[34.77772,32.07267],[34.76755,32.07807],[34.76728,32.07868],[34.76625,32.07956],[34.76667,32.0805],[34.76656,32.08172],[34.76712,32.08212],[34.76732,32.08301],[34.76883,32.08271],[34.77015,32.08534],[34.77431,32.08429]]]}},{"type":"Feature","properties":{"id":"orot","name":"אורות","name_en":"Orot","city":"תל אביב יפו","kind":"neighborhood","osm":"way/819219042"},"geometry":{"type":"Polygon","coordinates":[[[34.80595,32.0558],[34.80575,32.0555],[34.80555,32.05564],[34.80501,32.0548],[34.80445,32.05475],[34.8041,32.05428],[34.80334,32.05387],[34.80151,32.05333],[34.8,32.05335],[34.80026,32.05918],[34.80402,32.05924],[34.80418,32.05828],[34.80465,32.05753],[34.80649,32.0566],[34.80595,32.0558]]]}},{"type":"Feature","properties":{"id":"park_darom","name":"פארק דרום","name_en":null,"city":"תל אביב יפו","kind":"neighborhood","osm":"way/819219052"},"geometry":{"type":"Polygon","coordinates":[[[34.80048,32.04394],[34.80475,32.04349],[34.81067,32.04375],[34.80831,32.03749],[34.80795,32.03766],[34.80768,32.03688],[34.80806,32.03677],[34.80719,32.0344],[34.80248,32.03621],[34.79729,32.03934],[34.79543,32.03997],[34.79279,32.04031],[34.79105,32.04105],[34.79055,32.0416],[34.79144,32.04178],[34.79164,32.04259],[34.79126,32.04326],[34.79183,32.04366],[34.79564,32.04343],[34.79597,32.04254],[34.79741,32.0427],[34.79808,32.04449],[34.80048,32.04394]]]}},{"type":"Feature","properties":{"id":"ramat_aviv","name":"רמת-אביב","name_en":"Ramat Aviv","city":"תל אביב יפו","kind":"neighborhood","osm":"way/819845420"},"geometry":{"type":"Polygon","coordinates":[[[34.80145,32.11324],[34.80156,32.10896],[34.80114,32.10748],[34.80023,32.10584],[34.79926,32.10489],[34.79782,32.10409],[34.79548,32.10323],[34.79277,32.10274],[34.79192,32.10794],[34.79252,32.1126],[34.80144,32.11339],[34.80145,32.11324]]]}},{"type":"Feature","properties":{"id":"ramat_hatayasim","name":"רמת הטייסים","name_en":"Ramat HaTayasim","city":"תל אביב יפו","kind":"neighborhood","osm":"way/819219041"},"geometry":{"type":"Polygon","coordinates":[[[34.81045,32.05488],[34.80886,32.05575],[34.80558,32.05692],[34.80465,32.05753],[34.80418,32.05828],[34.80401,32.05938],[34.80421,32.06032],[34.80463,32.06095],[34.80587,32.06188],[34.80777,32.06057],[34.81073,32.0597],[34.81059,32.05885],[34.81182,32.05865],[34.81124,32.05642],[34.81045,32.05488]]]}},{"type":"Feature","properties":{"id":"sarona","name":"גני שרונה","name_en":"Sarona Gardens","city":"תל אביב יפו","kind":"neighborhood","osm":"way/819219037"},"geometry":{"type":"Polygon","coordinates":[[[34.79146,32.0757],[34.79008,32.07232],[34.78905,32.07078],[34.78771,32.06928],[34.7837,32.06598],[34.78281,32.06957],[34.78115,32.06988],[34.78196,32.07108],[34.78165,32.07553],[34.78542,32.07583],[34.79315,32.07854],[34.79146,32.0757]]]}},{"type":"Feature","properties":{"id":"shapira","name":"שפירא","name_en":"Shapira","city":"תל אביב יפו","kind":"neighborhood","osm":"way/817274801"},"geometry":{"type":"Polygon","coordinates":[[[34.78531,32.05417],[34.78543,32.05016],[34.78657,32.04818],[34.78798,32.04643],[34.78614,32.0467],[34.78655,32.04682],[34.78647,32.04699],[34.78402,32.04693],[34.77907,32.04763],[34.77341,32.04951],[34.77539,32.05487],[34.78175,32.05373],[34.78208,32.05398],[34.78254,32.05552],[34.78531,32.05434],[34.78531,32.05417]]]}},{"type":"Feature","properties":{"id":"tel_aviv_port","name":"נמל תל-אביב","name_en":"Tel Aviv Port","city":"תל אביב יפו","kind":"neighborhood","osm":"way/803404214"},"geometry":{"type":"Polygon","coordinates":[[[34.77629,32.10186],[34.77681,32.10214],[34.77777,32.10033],[34.77719,32.09772],[34.77488,32.09693],[34.77432,32.09709],[34.77444,32.09752],[34.77401,32.0976],[34.77369,32.09632],[34.77336,32.09583],[34.77314,32.09588],[34.7728,32.09485],[34.7719,32.09507],[34.77278,32.09812],[34.77263,32.09838],[34.77188,32.09864],[34.77294,32.09812],[34.77256,32.09682],[34.7732,32.0967],[34.77371,32.09866],[34.77233,32.09895],[34.77282,32.09882],[34.77562,32.10241],[34.77629,32.10186]]]}},{"type":"Feature","properties":{"id":"tel_haim","name":"תל חיים","name_en":"Tel Haim","city":"תל אביב יפו","kind":"neighborhood","osm":"way/819224104"},"geometry":{"type":"Polygon","coordinates":[[[34.80381,32.06607],[34.80387,32.06555],[34.80451,32.06561],[34.80502,32.06408],[34.80578,32.06289],[34.80589,32.06234],[34.80561,32.06215],[34.80587,32.06188],[34.80442,32.06069],[34.80402,32.05926],[34.80037,32.05918],[34.80019,32.06106],[34.79911,32.06415],[34.79881,32.06596],[34.80381,32.06607]]]}},{"type":"Feature","properties":{"id":"tzahalon","name":"צהלון ושיכוני חסכון","name_en":"Tzahalon, Shikunei Hisahon","city":"תל אביב יפו","kind":"neighborhood","osm":"way/819836743"},"geometry":{"type":"Polygon","coordinates":[[[34.75558,32.03839],[34.75547,32.03808],[34.74998,32.03744],[34.75107,32.03971],[34.75196,32.04259],[34.75193,32.04411],[34.75256,32.04567],[34.75241,32.04796],[34.75281,32.05011],[34.75876,32.04963],[34.75814,32.04532],[34.75558,32.03839]]]}},{"type":"Feature","properties":{"id":"tzamarot_ayalon","name":"צמרות איילון","name_en":"Tzamarot Ayalon","city":"תל אביב יפו","kind":"neighborhood","osm":"way/803479639"},"geometry":{"type":"Polygon","coordinates":[[[34.79979,32.08117],[34.79812,32.0808],[34.79786,32.08021],[34.797,32.08092],[34.79315,32.07854],[34.79408,32.08031],[34.7954,32.0867],[34.79558,32.08869],[34.79525,32.09127],[34.79736,32.09108],[34.80121,32.08967],[34.79913,32.08436],[34.79953,32.08393],[34.79943,32.08321],[34.8,32.08191],[34.80002,32.08119],[34.79979,32.08117]]]}},{"type":"Feature","properties":{"id":"yad_eliyahu","name":"יד אליהו","name_en":"Yad Eliyahu","city":"תל אביב יפו","kind":"neighborhood","osm":"way/819219043"},"geometry":{"type":"Polygon","coordinates":[[[34.79518,32.0639],[34.79908,32.06425],[34.80019,32.06106],[34.80038,32.05961],[34.8,32.05335],[34.78893,32.05418],[34.78588,32.05407],[34.78531,32.05424],[34.78559,32.05622],[34.78696,32.06071],[34.78737,32.06167],[34.78853,32.06316],[34.79033,32.06463],[34.79518,32.0639]]]}},{"type":"Feature","properties":{"id":"yafo_d_givat_hatmarim","name":"(יפו ד' (גבעת התמרים","name_en":"Yafo D (Givat Hatmarim)","city":"תל אביב יפו","kind":"neighborhood","osm":"way/819834029"},"geometry":{"type":"Polygon","coordinates":[[[34.75922,32.03651],[34.76028,32.0363],[34.75941,32.03443],[34.75948,32.03293],[34.75594,32.03349],[34.75531,32.03113],[34.75468,32.03123],[34.75452,32.03075],[34.75287,32.031],[34.75258,32.0304],[34.75081,32.03058],[34.75163,32.03404],[34.75182,32.03399],[34.75284,32.0353],[34.75488,32.03639],[34.75555,32.03796],[34.75861,32.03701],[34.75922,32.03651]]]}},{"type":"Feature","properties":{"id":"yafo_gimel_neve_golan","name":"יפו ג' ונוה גולן","name_en":"Yafo Gimel & Neve Golan","city":"תל אביב יפו","kind":"neighborhood","osm":"way/819834028"},"geometry":{"type":"Polygon","coordinates":[[[34.75188,32.03413],[34.7516,32.03396],[34.75081,32.03058],[34.75104,32.03055],[34.75003,32.02926],[34.74397,32.03272],[34.74741,32.03492],[34.74998,32.03744],[34.75547,32.03808],[34.75488,32.03639],[34.7526,32.03512],[34.75188,32.03413]]]}},{"type":"Feature","properties":{"id":"ramat_gan","name":"רמת גן","name_en":"Ramat Gan","city":"רמת גן","kind":"city","osm":"relation/1382493"},"geometry":{"type":"Polygon","coordinates":[[[34.8118,32.05863],[34.81128,32.05657],[34.81043,32.05486],[34.81255,32.05295],[34.81384,32.05067],[34.81391,32.04764],[34.81324,32.04469],[34.8159,32.04427],[34.8179,32.0436],[34.82026,32.04234],[34.82411,32.03974],[34.82632,32.03884],[34.83572,32.03692],[34.84101,32.03675],[34.84581,32.03609],[34.84588,32.03817],[34.84549,32.03823],[34.84565,32.03883],[34.84583,32.03879],[34.8459,32.03954],[34.85311,32.04903],[34.85425,32.05047],[34.85459,32.05061],[34.85349,32.05198],[34.85185,32.05509],[34.84669,32.06203],[34.84568,32.06148],[34.84144,32.06235],[34.84083,32.06022],[34.83663,32.06106],[34.83711,32.06223],[34.83929,32.06481],[34.84276,32.06505],[34.84521,32.06561],[34.84552,32.07127],[34.84746,32.07087],[34.84711,32.07015],[34.84819,32.06976],[34.84806,32.0695],[34.85029,32.06934],[34.8512,32.07322],[34.84687,32.07503],[34.84634,32.07413],[34.84545,32.07428],[34.84432,32.07251],[34.84326,32.07283],[34.84245,32.07108],[34.84103,32.06901],[34.83912,32.06955],[34.83942,32.06999],[34.83288,32.07192],[34.83311,32.07488],[34.83274,32.0749],[34.83234,32.07599],[34.82767,32.07544],[34.82746,32.07707],[34.82506,32.08474],[34.82208,32.08494],[34.82255,32.08787],[34.82264,32.09091],[34.82143,32.09675],[34.82203,32.09714],[34.82853,32.09896],[34.82793,32.10127],[34.82765,32.10558],[34.82518,32.10494],[34.82304,32.10373],[34.823,32.1033],[34.82433,32.10276],[34.82436,32.1025],[34.82355,32.102],[34.82211,32.10181],[34.82117,32.1012],[34.82131,32.10071],[34.82238,32.09982],[34.82262,32.09915],[34.81998,32.09629],[34.81945,32.09611],[34.81899,32.09625],[34.81864,32.09747],[34.81822,32.09779],[34.81562,32.09818],[34.81446,32.09653],[34.81288,32.09574],[34.81223,32.09567],[34.80971,32.09632],[34.80974,32.09509],[34.80913,32.09478],[34.8087,32.0941],[34.80856,32.09439],[34.80932,32.09098],[34.80696,32.08978],[34.80705,32.09117],[34.80589,32.09121],[34.80589,32.0914],[34.80448,32.09092],[34.80346,32.09161],[34.80221,32.09341],[34.80179,32.09293],[34.80114,32.08936],[34.79912,32.08439],[34.79953,32.08393],[34.79943,32.08321],[34.8,32.08191],[34.80002,32.08119],[34.80084,32.08188],[34.80135,32.08158],[34.80137,32.08115],[34.80169,32.08115],[34.80156,32.08015],[34.80139,32.08014],[34.80141,32.07892],[34.80504,32.07922],[34.80497,32.07974],[34.80851,32.07996],[34.81135,32.07947],[34.81186,32.07955],[34.81205,32.07994],[34.81255,32.07988],[34.81318,32.07803],[34.82004,32.08051],[34.81959,32.07901],[34.82074,32.07896],[34.82069,32.07825],[34.81938,32.07833],[34.81841,32.07414],[34.81809,32.07139],[34.81624,32.0666],[34.81498,32.06487],[34.81776,32.06388],[34.81969,32.06246],[34.81935,32.06204],[34.81961,32.0617],[34.81921,32.06147],[34.81898,32.06042],[34.8188,32.06037],[34.81894,32.05997],[34.81862,32.05976],[34.81879,32.05932],[34.81557,32.0585],[34.8118,32.05863]]]}},{"type":"Feature","properties":{"id":"tel_aviv_yafo","name":"תל אביב יפו","name_en":"Tel-Aviv","city":"תל אביב יפו","kind":"city","osm":"relation/1382494"},"geometry":{"type":"Polygon","coordinates":[[[34.74243,32.03313],[34.74398,32.03276],[34.74987,32.02934],[34.75085,32.0306],[34.75256,32.03043],[34.75286,32.03101],[34.75456,32.03075],[34.7547,32.03123],[34.75527,32.03115],[34.75593,32.0335],[34.75948,32.03293],[34.75945,32.03484],[34.75995,32.03647],[34.76275,32.0366],[34.76551,32.03624],[34.77439,32.03278],[34.77667,32.03669],[34.7781,32.03867],[34.77882,32.03824],[34.786,32.04682],[34.78808,32.04676],[34.79055,32.04148],[34.79176,32.04089],[34.7968,32.03973],[34.80157,32.0371],[34.80725,32.03455],[34.80803,32.03679],[34.80764,32.0369],[34.80792,32.03767],[34.80829,32.03751],[34.80975,32.04154],[34.81219,32.04081],[34.81242,32.04092],[34.81381,32.0446],[34.81324,32.04469],[34.81391,32.04764],[34.81388,32.05032],[34.81367,32.05121],[34.81255,32.05295],[34.81043,32.05486],[34.81128,32.05657],[34.8118,32.05863],[34.81057,32.05884],[34.81071,32.05971],[34.80806,32.06045],[34.80614,32.06163],[34.8056,32.06217],[34.80588,32.06236],[34.80576,32.06291],[34.80494,32.06424],[34.80449,32.06563],[34.80386,32.06558],[34.80378,32.06613],[34.80281,32.06605],[34.80251,32.06914],[34.80212,32.06998],[34.80257,32.07046],[34.8006,32.07293],[34.80213,32.07676],[34.80193,32.07771],[34.79786,32.08021],[34.79812,32.0808],[34.80002,32.08119],[34.8,32.08191],[34.79943,32.08321],[34.79953,32.08393],[34.79912,32.08439],[34.80114,32.08936],[34.80179,32.09293],[34.80221,32.09341],[34.80346,32.09161],[34.80448,32.09092],[34.80589,32.0914],[34.80589,32.09121],[34.80705,32.09117],[34.80696,32.08978],[34.80932,32.09098],[34.80856,32.09439],[34.8087,32.0941],[34.80913,32.09478],[34.80974,32.09509],[34.80971,32.09632],[34.81223,32.09567],[34.81288,32.09574],[34.81446,32.09653],[34.81562,32.09818],[34.81822,32.09779],[34.81864,32.09747],[34.81899,32.09625],[34.81945,32.09611],[34.81998,32.09629],[34.82262,32.09915],[34.82238,32.09982],[34.82131,32.10071],[34.82117,32.1012],[34.82211,32.10181],[34.82319,32.1019],[34.82419,32.10234],[34.82433,32.10276],[34.82318,32.10315],[34.82296,32.10363],[34.82518,32.10494],[34.82872,32.10584],[34.83587,32.10516],[34.83886,32.10638],[34.83974,32.10699],[34.84146,32.10691],[34.84225,32.10814],[34.84295,32.10842],[34.84459,32.10804],[34.84666,32.10662],[34.84764,32.10667],[34.84864,32.10711],[34.84925,32.10703],[34.85226,32.1194],[34.85126,32.11978],[34.85032,32.11981],[34.85038,32.12033],[34.84891,32.11871],[34.84855,32.11877],[34.84854,32.11908],[34.84624,32.11966],[34.84428,32.11972],[34.8444,32.12046],[34.84346,32.12083],[34.84356,32.121],[34.84206,32.12148],[34.842,32.12334],[34.8414,32.12327],[34.84129,32.12387],[34.83995,32.12394],[34.83995,32.12577],[34.83644,32.12588],[34.83731,32.1277],[34.8358,32.12769],[34.8358,32.12812],[34.83341,32.12852],[34.82891,32.1287],[34.82804,32.12784],[34.82618,32.12785],[34.82759,32.13036],[34.81952,32.13068],[34.82173,32.12595],[34.82403,32.12399],[34.82357,32.12327],[34.81116,32.12443],[34.80965,32.12689],[34.80962,32.12762],[34.80901,32.1284],[34.80719,32.12973],[34.80447,32.1307],[34.80275,32.13091],[34.79986,32.13053],[34.79832,32.12965],[34.79751,32.1286],[34.7956,32.1287],[34.79682,32.1339],[34.79829,32.13668],[34.80134,32.14088],[34.80244,32.14402],[34.78763,32.14698],[34.78651,32.14346],[34.77543,32.11416],[34.7715,32.11001],[34.77125,32.1036],[34.76622,32.09514],[34.75911,32.07165],[34.75402,32.06058],[34.74807,32.05771],[34.74077,32.04798],[34.74078,32.03857],[34.73913,32.03376],[34.7422,32.03297],[34.74243,32.03313]]]}},{"type":"Feature","properties":{"id":"givatayim","name":"גבעתיים","name_en":"Givatayim","city":"גבעתיים","kind":"city","osm":"relation/1382923"},"geometry":{"type":"Polygon","coordinates":[[[34.80002,32.08119],[34.79812,32.0808],[34.79786,32.08021],[34.80193,32.07771],[34.80213,32.07676],[34.8006,32.07293],[34.80257,32.07046],[34.80212,32.06998],[34.80251,32.06914],[34.80281,32.06605],[34.80378,32.06613],[34.80386,32.06558],[34.80449,32.06563],[34.80494,32.06424],[34.80576,32.06291],[34.80588,32.06236],[34.8056,32.06217],[34.80762,32.06065],[34.81071,32.05971],[34.81057,32.05884],[34.81464,32.05843],[34.81695,32.05873],[34.81879,32.05932],[34.81862,32.05976],[34.81894,32.05997],[34.8188,32.06037],[34.81898,32.06042],[34.81921,32.06147],[34.81961,32.0617],[34.81935,32.06204],[34.81969,32.06246],[34.81776,32.06388],[34.81498,32.06487],[34.81624,32.0666],[34.81809,32.07139],[34.81841,32.07414],[34.81938,32.07833],[34.82069,32.07825],[34.82074,32.07896],[34.81959,32.07901],[34.82004,32.08051],[34.81318,32.07803],[34.81255,32.07988],[34.81205,32.07994],[34.81186,32.07955],[34.81135,32.07947],[34.80851,32.07996],[34.80497,32.07974],[34.80504,32.07922],[34.80141,32.07892],[34.80139,32.08014],[34.80156,32.08015],[34.80169,32.08115],[34.80137,32.08115],[34.80135,32.08158],[34.80084,32.08188],[34.80002,32.08119]]]}}]}